ONEWEB-0641             
1 55805U 23029K   24097.26458838  .00000176  00000+0  40797-3 0  9998
2 55805  87.9098 104.5739 0001674  93.5304 266.6020 13.19724289 53148
ONEWEB-0642             
1 55806U 23029L   24097.25985030  .00000066  00000+0  13221-3 0  9997
2 55806  87.9102 104.5945 0001065 119.3250 240.7989 13.19723827 53138
ONEWEB-0643             
1 55807U 23029M   24097.39548032 -.00000149  00000+0 -43575-3 0  9999
2 55807  87.8900  89.2828 0001679 120.9913 239.1381 13.14503490 54055
ONEWEB-0644             
1 55808U 23029N   24097.40676106  .00000068  00000+0  13720-3 0  9993
2 55808  87.9102 104.5598 0001419 105.5155 254.6134 13.19724610 53157
ONEWEB-0645             
1 55809U 23029P   24097.40278173  .00000025  00000+0  30694-4 0  9999
2 55809  87.9101 104.5627 0001353  83.9504 276.1783 13.19723184 53158
ONEWEB-0646             
1 55810U 23029Q   24097.43281439  .00000108  00000+0  23788-3 0  9990
2 55810  87.9099 104.5573 0001793  98.6041 261.5295 13.19724180 53145
ONEWEB-0648             
1 55811U 23029R   24097.36376826  .00000145  00000+0  35578-3 0  9999
2 55811  87.8903  89.2596 0000776  93.1495 266.9723 13.14503608 54057
ONEWEB-0649             
1 55812U 23029S   24097.47150659  .00000025  00000+0  29019-4 0  9997
2 55812  87.9097 104.5468 0001386  94.5328 265.5963 13.19727322 53180
